STARLINK-34687          
1 64909U 25157F   25222.83334491 -.01537778  00000+0 -13724-1 0  9993
2 64909  53.1582 258.5142 0000895  95.5086 193.2646 15.70540572  3590
STARLINK-34642          
1 64910U 25157G   25222.83334491 -.01536534  00000+0 -13711-1 0  9990
2 64910  53.1585 258.5104 0000859  99.8341 190.8531 15.70541906  3648
STARLINK-34718          
1 64911U 25157H   25222.83334491 -.01540127  00000+0 -13745-1 0  9991
2 64911  53.1591 258.5068 0000767  90.1365 202.4639 15.70546004  3646
STARLINK-34711          
1 64912U 25157J   25222.83334491 -.01536465  00000+0 -13711-1 0  9995
2 64912  53.1587 258.5023 0000767  84.4653 210.0562 15.70541565  3646
STARLINK-34659          
1 64913U 25157K   25222.83334491 -.01541213  00000+0 -13757-1 0  9993
2 64913  53.1581 258.4983 0000837  85.4325 211.0058 15.70543379  3590
STARLINK-34571          
1 64914U 25157L   25222.83334491 -.01541711  00000+0 -13762-1 0  9993
2 64914  53.1582 258.4942 0000888  86.5140 211.8427 15.70542872  3595
STARLINK-34636          
1 64915U 25157M   25222.83334491 -.01541503  00000+0 -13760-1 0  9991
2 64915  53.1582 258.4902 0000830  85.7810 214.4918 15.70543264  3640
STARLINK-34695          
1 64916U 25157N   25222.83334491 -.01489607  00000+0 -13270-1 0  9994
2 64916  53.1582 258.4862 0001214  90.7769 211.4505 15.70492575  3649
STARLINK-34653          
1 64917U 25157P   25222.83334491 -.01538648  00000+0 -13732-1 0  9998
2 64917  53.1588 258.4825 0000916  92.7896 211.3171 15.70541595  3595
STARLINK-34611          
1 64918U 25157Q   25222.83334491 -.01536248  00000+0 -13708-1 0  9996
2 64918  53.1591 258.4781 0000799  98.3540 207.6664 15.70542726  3646
STARLINK-34599          
1 64919U 25157R   25222.83334491 -.01733645  00000+0 -16044-1 0  9993
2 64919  53.1590 258.1483 0000955  90.1001  15.6992 15.70045272  3643
STARLINK-34069          
1 64920U 25157S   25222.83334491 -.01531237  00000+0 -13660-1 0  9999
2 64920  53.1591 258.4741 0000910  99.7818 208.1584 15.70538224  3648
STARLINK-34699          
1 64921U 25157T   25222.83334491 -.01441918  00000+0 -13066-1 0  9996
2 64921  53.1587 258.4699 0001183 106.0305 203.8821 15.70471732  3648
STARLINK-34700          
1 64922U 25157U   25222.83334491 -.01534218  00000+0 -13689-1 0  9994
2 64922  53.1591 258.4659 0000738  96.9046 214.8674 15.70541070  3599
STARLINK-34643          
1 64923U 25157V   25222.83334491 -.01545799  00000+0 -13801-1 0  9997
2 64923  53.1587 258.4581 0000949  83.0312 232.5766 15.70545517  3641
STARLINK-34199          
1 64924U 25157W   25222.83334491 -.01535548  00000+0 -13702-1 0  9999
2 64924  53.1589 258.4620 0000847 100.1823 213.5071 15.70540565  3593
STARLINK-34579          
1 64925U 25157X   25222.83334491 -.01533599  00000+0 -13683-1 0  9992
2 64925  53.1594 258.4542 0000695  87.7154 229.8064 15.70541165  3646
STARLINK-34543          
1 64926U 25157Y   25222.83334491 -.01533356  00000+0 -13681-1 0  9992
2 64926  53.1586 258.4400 0000908  89.5766 235.6158 15.70538487  3593
STARLINK-34661          
1 64927U 25157Z   25222.83334491 -.01734271  00000+0 -16051-1 0  9996
2 64927  53.1590 258.1437 0000888  93.7553  13.9612 15.70045380  3377
STARLINK-34248          
1 64928U 25157AA  25222.83334491 -.01537030  00000+0 -13716-1 0  9996
2 64928  53.1588 258.4502 0000797  90.7690 228.6694 15.70542405  3644
STARLINK-34290          
1 64929U 25157AB  25222.83334491 -.01534057  00000+0 -13687-1 0  9990
2 64929  53.1589 258.4460 0001011 103.0664 218.2906 15.70539256  3649
STARLINK-34220          
1 64930U 25157AC  25222.83334491 -.01715435  00000+0 -15892-1 0  9993
2 64930  53.1590 258.1400 0000834  89.9276  19.7888 15.69987030  3533
STARLINK-34715          
1 64931U 25157AD  25222.83334491 -.01534318  00000+0 -13691-1 0  9998
2 64931  53.1589 258.4417 0000789  89.0924 234.1835 15.70538876  3642
STARLINK-34705          
1 64932U 25158A   25222.83334491 -.02031299  00000+0 -35358-1 0  9995
2 64932  97.6024  84.7482 0001847  93.9804 193.0191 15.53883777  3528
STARLINK-34737          
1 64933U 25158B   25222.83334491 -.02027498  00000+0 -35286-1 0  9992
2 64933  97.6023  84.7488 0001789  97.5254 191.3930 15.53882857  3528
STARLINK-34775          
1 64934U 25158C   25222.83334491 -.02025444  00000+0 -35249-1 0  9991
2 64934  97.6025  84.7492 0001810  96.7731 194.0685 15.53880377  3524
STARLINK-34726          
1 64935U 25158D   25222.83334491 -.02031493  00000+0 -35361-1 0  9998
2 64935  97.6024  84.7498 0001652  90.3968 202.3611 15.53886268  3477
STARLINK-34529          
1 64936U 25158E   25222.83334491 -.02017870  00000+0 -35108-1 0  9991
2 64936  97.6026  84.7513 0001796  92.8638 201.8211 15.53875679  3528
STARLINK-34743          
1 64937U 25158F   25222.83334491 -.02020685  00000+0 -35162-1 0  9990
2 64937  97.6025  84.7518 0001731  92.5029 204.1010 15.53876856  3524
STARLINK-34730          
1 64938U 25158G   25222.83334491 -.02013968  00000+0 -35034-1 0  9995
2 64938  97.6028  84.7528 0001775  99.3085 199.2172 15.53874478  3479
STARLINK-34714          
1 64939U 25158H   25222.83334491 -.02030486  00000+0 -35342-1 0  9992
2 64939  97.6030  84.7536 0001739  91.0713 209.3705 15.53884979  3314
STARLINK-34755          
1 64940U 25158J   25222.83334491  .00068079  00000+0  95708-3 0  9993
2 64940  97.6021  84.7543 0001650  89.9847 215.0898 15.56464796  3478
STARLINK-34740          
1 64941U 25158K   25222.83334491 -.02029393  00000+0 -35323-1 0  9999
2 64941  97.6030  84.7552 0001623  96.2066 208.0764 15.53884336  3469
STARLINK-34742          
1 64942U 25158L   25222.83334491 -.02031035  00000+0 -35354-1 0  9990
2 64942  97.6029  84.7562 0001552  94.7661 211.4359 15.53885738  3526
STARLINK-34719          
1 64943U 25158M   25222.83334491 -.02031101  00000+0 -35357-1 0  9998
2 64943  97.6028  84.7574 0001546  90.0019 218.1228 15.53884463  3521
STARLINK-34373          
1 64944U 25158N   25222.83334491 -.02030358  00000+0 -35340-1 0  9994
2 64944  97.6026  84.7576 0001851  95.6653 214.3817 15.53883507  3470
STARLINK-34758          
1 64945U 25158P   25222.83334491 -.02027722  00000+0 -35292-1 0  9992
2 64945  97.6024  84.7583 0001792 101.8887 210.0809 15.53881559  3479
STARLINK-34753          
1 64946U 25158Q   25222.83334491 -.02125503  00000+0 -37164-1 0  9999
2 64946  97.6045  84.7565 0001500  84.5484 229.3311 15.53914698  3472
STARLINK-34747          
1 64947U 25158R   25222.83334491 -.02030780  00000+0 -35351-1 0  9998
2 64947  97.6024  84.7600 0001748 102.1155 213.6961 15.53882353  3521
STARLINK-34630          
1 64948U 25158S   25222.83334491 -.02030892  00000+0 -35352-1 0  9994
2 64948  97.6026  84.7610 0001702  95.7942 221.9361 15.53883710  3474
STARLINK-34689          
1 64949U 25158T   25222.83334491 -.02030249  00000+0 -35340-1 0  9998
2 64949  97.6028  84.7619 0001757  95.8976 223.7535 15.53882787  3526
STARLINK-34586          
1 64950U 25158U   25222.83334491 -.02020332  00000+0 -35153-1 0  9994
2 64950  97.6028  84.7629 0001766 102.2916 219.2813 15.53878174  3474
STARLINK-34738          
1 64951U 25158V   25222.83334491 -.02030289  00000+0 -35340-1 0  9995
2 64951  97.6032  84.7640 0001723  97.2980 226.1939 15.53883702  3479
STARLINK-34744          
1 64952U 25158W   25222.83334491 -.02026499  00000+0 -35270-1 0  9996
2 64952  97.6030  84.7648 0001801  98.6282 228.7063 15.53880070  3474
STARLINK-34701          
1 64953U 25158X   25222.83334491 -.02025220  00000+0 -35246-1 0  9991
2 64953  97.6032  84.7653 0001590  98.0420 227.3702 15.53881418  3478
STARLINK-34761          
1 64954U 25158Y   25222.83334491 -.02020849  00000+0 -35164-1 0  9993
2 64954  97.6028  84.7661 0001722  89.9371 239.3171 15.53877856  3478
STARLINK-34732          
1 64955U 25158Z   25222.83334491 -.02031151  00000+0 -35359-1 0  9998
2 64955  97.6025  84.7680 0001487  91.7389 239.4333 15.53884229  3478
HULIANWANG DIGUI 5A     
1 64956U 25159A   25222.58459805  .00000099  00000+0  10221-3 0  9995
2 64956  86.4958  27.8303 0003398 159.8522 200.2769 13.65100306  1912
HULIANWANG DIGUI 5B     
1 64957U 25159B   25222.58242220  .00000134  00000+0  14360-3 0  9995
2 64957  86.4977  27.8339 0003310 159.2318 200.8975 13.65649191  1919
HULIANWANG DIGUI 5C     
1 64958U 25159C   25222.96948206  .00000184  00000+0  20548-3 0  9995
2 64958  86.4888  27.6832 0002423  73.2714  40.1535 13.65582206  1972
HULIANWANG DIGUI 5D     
1 64959U 25159D   25222.72427840  .00000073  00000+0  68213-4 0  9995
2 64959  86.4989  27.7755 0002021 132.9689 227.1638 13.66265301  1930
HULIANWANG DIGUI 5E     
1 64960U 25159E   25222.79521662  .00000107  00000+0  10872-3 0  9996
2 64960  86.4960  27.7460 0001587 110.9691 249.1637 13.66558102  1958
CZ-6A R/B               
1 64961U 25159F   25222.60772393  .00000066  00000+0  34167-4 0  9994
2 64961  86.5060  27.6087 0104738  72.8788 288.3823 13.94024694  1957
KUNPENG-03              
1 64962U 25160A   25222.84879644  .00017852  00000+0  79898-3 0  9990
2 64962  97.3986 297.2959 0011128 221.1625 138.8773 15.21282925  1922
SQX-1 R/B               
1 64963U 25160B   25222.84765329  .00057175  31071-5  33819-3 0  9998
2 64963  97.4398 298.1420 0165316 307.4570  51.1745 15.61421163  1985
STARLINK-34617          
1 65015U 25161A   25222.58334491 -.00956187  00000+0 -47892-2 0  9991
2 65015  53.1545 201.3118 0000915  65.3347  59.0161 15.83439899  2936
STARLINK-34627          
1 65016U 25161B   25222.58334491 -.00966680  00000+0 -48446-2 0  9997
2 65016  53.1545 201.3072 0000952  65.6359  60.9250 15.83453478  3045
STARLINK-34549          
1 65017U 25161C   25222.58334491 -.00972415  00000+0 -48782-2 0  9994
2 65017  53.1547 201.3015 0001015  57.6010  71.7104 15.83446392  3046
STARLINK-34623          
1 65018U 25161D   25222.58334491 -.00973803  00000+0 -48866-2 0  9990
2 65018  53.1546 201.2956 0000833  69.7769  62.1191 15.83445473  2937
